ONEWEB-0300             
1 49089U 21075Q   24149.92134556 -.00000370  00000+0 -10635-2 0  9998
2 49089  87.8924 139.8482 0001952 101.1518 258.9830 13.12444208136924
ONEWEB-0301             
1 49090U 21075R   24149.98167590  .00001613  00000+0  44481-2 0  9995
2 49090  87.8924 139.8398 0001911  95.7863 264.3483 13.12454768137285
ONEWEB-0302             
1 49091U 21075S   24149.89270397  .00004060  00000+0  11239-1 0  9999
2 49091  87.8925 139.8560 0002042  78.8492 281.2866 13.12474469137265
ONEWEB-0304             
1 49092U 21075T   24150.05845223 -.00000013  00000+0 -65961-4 0  9996
2 49092  87.9160 154.9804 0001912  79.3229 280.8117 13.17650559135900
ONEWEB-0305             
1 49093U 21075U   24149.51899214  .00000022  00000+0  23953-4 0  9998
2 49093  87.9157 155.0747 0001613  77.6678 282.4634 13.17650196134887
ONEWEB-0308             
1 49094U 21075V   24149.88635086  .00004478  00000+0  12401-1 0  9996
2 49094  87.8921 139.8565 0001974  86.2195 273.9160 13.12477365137279
ONEWEB-0309             
1 49095U 21075W   24150.05529357  .00000018  00000+0  12262-4 0  9995
2 49095  87.9162 154.9724 0002368  75.7424 284.3971 13.17650184135911
ONEWEB-0310             
1 49096U 21075X   24150.05313963  .00002500  00000+0  69092-2 0  9999
2 49096  87.8935 139.8289 0002042  81.0509 279.0851 13.12461530137921
